COSMOS 2419 (714)       
1 28915U 05050A   17149.70506047 -.00000037  00000-0  00000-0 0  9997
2 28915  65.4871  66.4752 0017488 352.6728 309.6850  2.13106958 88933
COSMOS 2425 (716)       
1 29670U 06062A   17149.63720522 -.00000022  00000-0  10000-3 0  9996
2 29670  65.4708 305.4863 0020825 351.3224 311.2676  2.13104975 81133
COSMOS 2426 (717)       
1 29671U 06062B   17149.52472932 -.00000022  00000-0  10000-3 0  9994
2 29671  65.4891 305.5798 0017934 158.3754 276.3924  2.13102958 81142
COSMOS 2424 (715)       
1 29672U 06062C   17149.72833476 -.00000022  00000-0  10000-3 0  9991
2 29672  65.4730 305.4953 0017419 157.1437 249.1647  2.13102297 81146
COSMOS 2433 (720)       
1 32275U 07052A   17149.63448416 -.00000037  00000-0  10000-3 0  9996
2 32275  65.5038  66.2554 0003475 299.3581 193.2620  2.13104687 74659
COSMOS 2432 (719)       
1 32276U 07052B   17149.29184191 -.00000035  00000-0  10000-3 0  9994
2 32276  65.5150  66.3372 0013415 336.9384 205.7412  2.13104200 74646
COSMOS 2434 (721)       
1 32393U 07065A   17149.66224289 -.00000022  00000-0  00000-0 0  9994
2 32393  65.0884 304.6442 0005956 104.1123 299.4853  2.13102960 73366
COSMOS 2436 (723)       
1 32395U 07065C   17149.83380917 -.00000022  00000-0  10000-3 0  9990
2 32395  65.0977 304.6840 0015117   8.0526 215.7611  2.13104352 73294
COSMOS 2443 (725)       
1 33379U 08046B   17148.79152638 -.00000034  00000-0  00000-0 0  9993
2 33379  65.4313  65.6682 0011328 181.9678 284.8076  2.13099370 67492
COSMOS 2456 (730)       
1 36111U 09070A   17149.65024338  .00000044  00000-0  00000-0 0  9999
2 36111  64.1787 184.2109 0006084 300.5116 264.9107  2.13102973 58028
COSMOS 2457 (733)       
1 36112U 09070B   17149.69081513  .00000043  00000-0  00000-0 0  9991
2 36112  64.1610 184.1283 0006320 188.2379 176.9516  2.13101624 58030
COSMOS 2458 (734)       
1 36113U 09070C   17149.63733167  .00000044  00000-0  10000-3 0  9990
2 36113  64.1667 184.1388 0002420 305.0340  67.0982  2.13102126 58038
COSMOS 2459 (731)       
1 36400U 10007A   17149.39498663 -.00000037  00000-0  10000-3 0  9996
2 36400  65.4122  65.3701 0029453 352.1055 179.0187  2.13102385 56370
COSMOS 2461 (735)       
1 36401U 10007B   17149.41611862 -.00000037  00000-0  10000-3 0  9998
2 36401  65.4049  65.3486 0007164  51.8922  46.0430  2.13102440 56376
COSMOS 2460 (732)       
1 36402U 10007C   17149.64362580 -.00000038  00000-0  10000-3 0  9995
2 36402  65.3947  65.3130 0002204 349.0199 324.7668  2.13101848 56377
COSMOS 2465 (737)       
1 37138U 10041B   17149.56393193 -.00000023  00000-0  00000-0 0  9995
2 37138  64.6875 304.6459 0035837 169.1520 203.7908  2.13104859 52459
COSMOS 2464 (736)       
1 37139U 10041C   17149.71401648 -.00000023  00000-0  00000-0 0  9998
2 37139  64.6929 304.6385 0023623  17.4248 293.6314  2.13102649 52443
COSMOS 2471 (701K)      
1 37372U 11009A   17149.44308109 -.00000037  00000-0  00000-0 0  9995
2 37372  65.3930  65.2678 0007551 244.4506  51.2313  2.13107675 48646
COSMOS 2474 (742)       
1 37829U 11055A   17149.61407453  .00000044  00000-0  00000-0 0  9991
2 37829  64.5034 184.7690 0010370 253.1535 144.3978  2.13101994 44029
COSMOS 2476 (744)       
1 37867U 11064A   17149.66254383  .00000043  00000-0  00000-0 0  9999
2 37867  64.4826 184.8421 0019584 246.4245 234.2497  2.13102095 43376
COSMOS 2477 (745)       
1 37868U 11064B   17149.45561494  .00000044  00000-0  00000-0 0  9992
2 37868  64.4917 184.8907 0017467 248.0379 253.0105  2.13101871 43322
COSMOS 2475 (743)       
1 37869U 11064C   17149.64477741  .00000043  00000-0  00000-0 0  9994
2 37869  64.4987 184.8751 0022437 271.3514 331.1967  2.13102025 43337
COSMOS 2485 (747)       
1 39155U 13019A   17149.49194464  .00000044  00000-0  00000-0 0  9998
2 39155  64.6524 184.8708 0019873 241.6408 153.1759  2.13102048 31849
COSMOS 2492 (754)       
1 39620U 14012A   17149.57182449 -.00000038  00000-0  10000-3 0  9996
2 39620  65.2842  65.2557 0016616 334.5142 155.7023  2.13103297 24794
COSMOS 2500 (755)       
1 40001U 14032A   17149.81513963 -.00000040  00000-0  00000-0 0  9998
2 40001  65.2257  65.2451 0004642 223.9818 315.9764  2.13102980 23013
COSMOS 2501 (702K)      
1 40315U 14075A   17149.47235339 -.00000025  00000-0  00000-0 0  9996
2 40315  64.4205 305.9949 0014375 204.1050 239.1725  2.13098611 19412
COSMOS 2514 (751)       
1 41330U 16008A   17149.57480693 -.00000038  00000-0  00000-0 0  9992
2 41330  65.0262  65.4020 0008072 227.6376 307.8886  2.13103496 10179
COSMOS 2516 (753)       
1 41554U 16032A   17149.52944802 -.00000024  00000-0  00000-0 0  9994
2 41554  64.6405 305.7526 0010342 213.5248 179.8975  2.13101631  7785
